LEMUR-2-DEMBITZ         
1 42842U 17042T   26068.47492167  .00020231  00000+0  76561-3 0  9991
2 42842  97.3807 250.9241 0006961  17.1421 343.0051 15.26947128473114
STARLINK-33624          
1 63071U 25035V   26067.29301659  .00028577  00000+0  10441-2 0  9998
2 63071  42.9998 151.7103 0000846 237.5448 122.5322 15.27577311 59447
